start=new Date('2021-11-22T00:00:00.000Z').valueOf();
sats=[{"MEAN_MOTION_DOT":"0.00234089","CENTER_NAME":"EARTH","APOAPSIS":"364.378","INCLINATION":"53.0498","OBJECT_TYPE":"PAYLOAD","PERIOD":"91.709","TLE_LINE2":"2 45224  53.0498 136.2031 0008884 274.4320  85.5681 15.70176666 99819","MEAN_MOTION":"15.70176666","TIME_SYSTEM":"UTC","MEAN_ANOMALY":"85.5681","EPOCH":"2021-11-21T10:44:24.754272","RA_OF_ASC_NODE":"136.2031","OBJECT_NAME":"STARLINK-1214","MEAN_MOTION_DDOT":"0.0000000000000","REV_AT_EPOCH":"9981","REF_FRAME":"TEME","RCS_SIZE":"LARGE","TLE_LINE1":"1 45224U 20012AY  21325.44750873  .00234089  00000-0  18437-2 0  9994","BSTAR":"0.00184370000000","COUNTRY_CODE":"US","LAUNCH_DATE":"2020-02-17","CLASSIFICATION_TYPE":"U","PERIAPSIS":"352.409","EPHEMERIS_TYPE":"0","ARG_OF_PERICENTER":"274.4320","OBJECT_ID":"2020-012AY","SITE":"AFETR","NORAD_CAT_ID":"45224","GP_ID":"190202695","FILE":"3220686","ELEMENT_SET_NO":"999","DECAY_DATE":null,"SEMIMAJOR_AXIS":"6736.529","MEAN_ELEMENT_THEORY":"SGP4","ECCENTRICITY":"0.00088840"},{"DECAY_DATE":null,"SEMIMAJOR_AXIS":"6925.358","MEAN_ELEMENT_THEORY":"SGP4","ECCENTRICITY":"0.00019430","FILE":"3220686","ELEMENT_SET_NO":"999","NORAD_CAT_ID":"45225","GP_ID":"190201448","SITE":"AFETR","ARG_OF_PERICENTER":"69.0264","OBJECT_ID":"2020-012AZ","PERIAPSIS":"545.877","EPHEMERIS_TYPE":"0","CLASSIFICATION_TYPE":"U","LAUNCH_DATE":"2020-02-17","BSTAR":"0.00011143000000","COUNTRY_CODE":"US","REF_FRAME":"TEME","RCS_SIZE":"LARGE","TLE_LINE1":"1 45225U 20012AZ  21325.39970542  .00001378  00000-0  11143-3 0  9997","RA_OF_ASC_NODE":"211.4275","MEAN_MOTION_DDOT":"0.0000000000000","OBJECT_NAME":"STARLINK-1215","REV_AT_EPOCH":"9882","EPOCH":"2021-11-21T09:35:34.548288","TLE_LINE2":"2 45225  53.0540 211.4275 0001943  69.0264 291.0933 15.06397012 98821","MEAN_MOTION":"15.06397012","TIME_SYSTEM":"UTC","MEAN_ANOMALY":"291.0933","PERIOD":"95.592","MEAN_MOTION_DOT":"0.00001378","CENTER_NAME":"EARTH","APOAPSIS":"548.568","OBJECT_TYPE":"PAYLOAD","INCLINATION":"53.0540"},{"TLE_LINE1":"1 45226U 20012BA  21325.40709157  .00001510  00000-0  12026-3 0  9991","REF_FRAME":"TEME","RCS_SIZE":"LARGE","MEAN_MOTION_DDOT":"0.0000000000000","OBJECT_NAME":"STARLINK-1217","REV_AT_EPOCH":"9878","RA_OF_ASC_NODE":"211.3996","LAUNCH_DATE":"2020-02-17","BSTAR":"0.00012026000000","COUNTRY_CODE":"US","PERIOD":"95.593","INCLINATION":"53.0541","OBJECT_TYPE":"PAYLOAD","MEAN_MOTION_DOT":"0.00001510","APOAPSIS":"548.588","CENTER_NAME":"EARTH","EPOCH":"2021-11-21T09:46:12.711648","TIME_SYSTEM":"UTC","MEAN_ANOMALY":"288.4416","TLE_LINE2":"2 45226  53.0541 211.3996 0001955  71.6785 288.4416 15.06393357 98781","MEAN_MOTION":"15.06393357","ELEMENT_SET_NO":"999","FILE":"3220686","GP_ID":"190201698","NORAD_CAT_ID":"45226","MEAN_ELEMENT_THEORY":"SGP4","ECCENTRICITY":"0.00019550","DECAY_DATE":null,"SEMIMAJOR_AXIS":"6925.369","PERIAPSIS":"545.880","EPHEMERIS_TYPE":"0","CLASSIFICATION_TYPE":"U","SITE":"AFETR","OBJECT_ID":"2020-012BA","ARG_OF_PERICENTER":"71.6785"},{"FILE":"3220686","ELEMENT_SET_NO":"999","NORAD_CAT_ID":"45227","GP_ID":"190202449","DECAY_DATE":null,"SEMIMAJOR_AXIS":"6925.380","MEAN_ELEMENT_THEORY":"SGP4","ECCENTRICITY":"0.00020190","PERIAPSIS":"545.847","EPHEMERIS_TYPE":"0","CLASSIFICATION_TYPE":"U","SITE":"AFETR","ARG_OF_PERICENTER":"71.4282","OBJECT_ID":"2020-012BB","REF_FRAME":"TEME","RCS_SIZE":"LARGE","TLE_LINE1":"1 45227U 20012BB  21325.42919868 -.00000688  00000-0 -27318-4 0  9994","RA_OF_ASC_NODE":"211.3109","OBJECT_NAME":"STARLINK-1221","MEAN_MOTION_DDOT":"0.0000000000000","REV_AT_EPOCH":"9879","LAUNCH_DATE":"2020-02-17","BSTAR":"-0.00002731800000","COUNTRY_CODE":"US","PERIOD":"95.593","MEAN_MOTION_DOT":"-0.00000688","CENTER_NAME":"EARTH","APOAPSIS":"548.643","OBJECT_TYPE":"PAYLOAD","INCLINATION":"53.0535","EPOCH":"2021-11-21T10:18:02.765952","TLE_LINE2":"2 45227  53.0535 211.3109 0002019  71.4282 288.6926 15.06389820 98792","MEAN_MOTION":"15.06389820","TIME_SYSTEM":"UTC","MEAN_ANOMALY":"288.6926"},{"EPOCH":"2021-11-21T18:21:02.456928","MEAN_MOTION":"15.06392810","TLE_LINE2":"2 45228  53.0541 209.7920 0001967  76.8348 283.2860 15.06392810 97986","TIME_SYSTEM":"UTC","MEAN_ANOMALY":"283.2860","PERIOD":"95.593","MEAN_MOTION_DOT":"-0.00000849","CENTER_NAME":"EARTH","APOAPSIS":"548.598","OBJECT_TYPE":"PAYLOAD","INCLINATION":"53.0541","LAUNCH_DATE":"2020-02-17","BSTAR":"-0.00003812100000","COUNTRY_CODE":"US","REF_FRAME":"TEME","RCS_SIZE":"LARGE","TLE_LINE1":"1 45228U 20012BC  21325.76461177 -.00000849  00000-0 -38121-4 0  9990","RA_OF_ASC_NODE":"209.7920","OBJECT_NAME":"STARLINK-1222","MEAN_MOTION_DDOT":"0.0000000000000","REV_AT_EPOCH":"9798","SITE":"AFETR","ARG_OF_PERICENTER":"76.8348","OBJECT_ID":"2020-012BC","PERIAPSIS":"545.873","EPHEMERIS_TYPE":"0","CLASSIFICATION_TYPE":"U","DECAY_DATE":null,"SEMIMAJOR_AXIS":"6925.371","MEAN_ELEMENT_THEORY":"SGP4","ECCENTRICITY":"0.00019670","FILE":"3220828","ELEMENT_SET_NO":"999","NORAD_CAT_ID":"45228","GP_ID":"190209300"},{"OBJECT_ID":"2020-012BD","ARG_OF_PERICENTER":"69.2440","SITE":"AFETR","CLASSIFICATION_TYPE":"U","EPHEMERIS_TYPE":"0","PERIAPSIS":"545.926","ECCENTRICITY":"0.00018930","MEAN_ELEMENT_THEORY":"SGP4","SEMIMAJOR_AXIS":"6925.372","DECAY_DATE":null,"GP_ID":"190208954","NORAD_CAT_ID":"45229","ELEMENT_SET_NO":"999","FILE":"3220828","MEAN_ANOMALY":"290.8752","TIME_SYSTEM":"UTC","TLE_LINE2":"2 45229  53.0549 209.9552 0001893  69.2440 290.8752 15.06392264 97982","MEAN_MOTION":"15.06392264","EPOCH":"2021-11-21T17:27:58.931424","OBJECT_TYPE":"PAYLOAD","INCLINATION":"53.0549","CENTER_NAME":"EARTH","APOAPSIS":"548.548","MEAN_MOTION_DOT":"0.00001210","PERIOD":"95.593","COUNTRY_CODE":"US","BSTAR":"0.00010016000000","LAUNCH_DATE":"2020-02-17","REV_AT_EPOCH":"9798","MEAN_MOTION_DDOT":"0.0000000000000","OBJECT_NAME":"STARLINK-1226","RA_OF_ASC_NODE":"209.9552","TLE_LINE1":"1 45229U 20012BD  21325.72776541  .00001210  00000-0  10016-3 0  9994","RCS_SIZE":"LARGE","REF_FRAME":"TEME"},{"LAUNCH_DATE":"2020-02-17","COUNTRY_CODE":"US","BSTAR":"0.00012469000000","RCS_SIZE":"LARGE","REF_FRAME":"TEME","TLE_LINE1":"1 45230U 20012BE  21325.39233027  .00001576  00000-0  12469-3 0  9995","RA_OF_ASC_NODE":"211.4657","REV_AT_EPOCH":"9888","OBJECT_NAME":"STARLINK-1227","MEAN_MOTION_DDOT":"0.0000000000000","EPOCH":"2021-11-21T09:24:57.335328","TLE_LINE2":"2 45230  53.0541 211.4657 0001900  79.0346 281.0856 15.06401855 98887","MEAN_MOTION":"15.06401855","MEAN_ANOMALY":"281.0856","TIME_SYSTEM":"UTC","PERIOD":"95.592","APOAPSIS":"548.524","CENTER_NAME":"EARTH","MEAN_MOTION_DOT":"0.00001576","INCLINATION":"53.0541","OBJECT_TYPE":"PAYLOAD","SEMIMAJOR_AXIS":"6925.343","DECAY_DATE":null,"ECCENTRICITY":"0.00019000","MEAN_ELEMENT_THEORY":"SGP4","FILE":"3220686","ELEMENT_SET_NO":"999","NORAD_CAT_ID":"45230","GP_ID":"190202199","SITE":"AFETR","ARG_OF_PERICENTER":"79.0346","OBJECT_ID":"2020-012BE","EPHEMERIS_TYPE":"0","PERIAPSIS":"545.892","CLASSIFICATION_TYPE":"U"},{"MEAN_MOTION":"15.73211878","TLE_LINE2":"2 45231  53.0298 139.9615 0004862 347.3549  12.7346 15.73211878 98938","TIME_SYSTEM":"UTC","MEAN_ANOMALY":"12.7346","EPOCH":"2021-11-21T17:41:47.752800","MEAN_MOTION_DOT":"0.00000945","CENTER_NAME":"EARTH","APOAPSIS":"352.997","INCLINATION":"53.0298","OBJECT_TYPE":"PAYLOAD","PERIOD":"91.532","BSTAR":"0.00001118500000","COUNTRY_CODE":"US","LAUNCH_DATE":"2020-02-17","RA_OF_ASC_NODE":"139.9615","OBJECT_NAME":"STARLINK-1229","MEAN_MOTION_DDOT":"0.0000000000000","REV_AT_EPOCH":"9893","REF_FRAME":"TEME","RCS_SIZE":"LARGE","TLE_LINE1":"1 45231U 20012BF  21325.73735825  .00000945  00000-0  11185-4 0  9991","ARG_OF_PERICENTER":"347.3549","OBJECT_ID":"2020-012BF","SITE":"AFETR","CLASSIFICATION_TYPE":"U","PERIAPSIS":"346.455","EPHEMERIS_TYPE":"0","DECAY_DATE":null,"SEMIMAJOR_AXIS":"6727.861","MEAN_ELEMENT_THEORY":"SGP4","ECCENTRICITY":"0.00048620","NORAD_CAT_ID":"45231","GP_ID":"190209309","FILE":"3220835","ELEMENT_SET_NO":"999"},{"OBJECT_ID":"2020-012BG","ARG_OF_PERICENTER":"74.4887","SITE":"AFETR","CLASSIFICATION_TYPE":"U","PERIAPSIS":"545.952","EPHEMERIS_TYPE":"0","MEAN_ELEMENT_THEORY":"SGP4","ECCENTRICITY":"0.00018710","DECAY_DATE":null,"SEMIMAJOR_AXIS":"6925.382","GP_ID":"190202696","NORAD_CAT_ID":"45232","ELEMENT_SET_NO":"999","FILE":"3220686","TIME_SYSTEM":"UTC","MEAN_ANOMALY":"285.6308","TLE_LINE2":"2 45232  53.0537 211.4150 0001871  74.4887 285.6308 15.06389008 98874","MEAN_MOTION":"15.06389008","EPOCH":"2021-11-21T09:40:53.685696","INCLINATION":"53.0537","OBJECT_TYPE":"PAYLOAD","MEAN_MOTION_DOT":"-0.00000784","APOAPSIS":"548.543","CENTER_NAME":"EARTH","PERIOD":"95.593","BSTAR":"-0.00003371400000","COUNTRY_CODE":"US","LAUNCH_DATE":"2020-02-17","MEAN_MOTION_DDOT":"0.0000000000000","OBJECT_NAME":"STARLINK-1235","REV_AT_EPOCH":"9887","RA_OF_ASC_NODE":"211.4150","TLE_LINE1":"1 45232U 20012BG  21325.40339914 -.00000784  00000-0 -33714-4 0  9990","REF_FRAME":"TEME","RCS_SIZE":"LARGE"},{"MEAN_ELEMENT_THEORY":"SGP4","ECCENTRICITY":"0.00021600","DECAY_DATE":null,"SEMIMAJOR_AXIS":"6925.353","ELEMENT_SET_NO":"999","FILE":"3220686","GP_ID":"190201449","NORAD_CAT_ID":"45233","SITE":"AFETR","OBJECT_ID":"2020-012BH","ARG_OF_PERICENTER":"72.1479","PERIAPSIS":"545.722","EPHEMERIS_TYPE":"0","CLASSIFICATION_TYPE":"U","LAUNCH_DATE":"2020-02-17","BSTAR":"0.00012142000000","COUNTRY_CODE":"US","TLE_LINE1":"1 45233U 20012BH  21325.44947217  .00001527  00000-0  12142-3 0  9991","REF_FRAME":"TEME","RCS_SIZE":"LARGE","MEAN_MOTION_DDOT":"0.0000000000000","OBJECT_NAME":"STARLINK-1238","REV_AT_EPOCH":"9858","RA_OF_ASC_NODE":"231.2056","EPOCH":"2021-11-21T10:47:14.395488","TIME_SYSTEM":"UTC","MEAN_ANOMALY":"287.9745","MEAN_MOTION":"15.06398625","TLE_LINE2":"2 45233  53.0557 231.2056 0002160  72.1479 287.9745 15.06398625 98589","PERIOD":"95.592","OBJECT_TYPE":"PAYLOAD","INCLINATION":"53.0557","MEAN_MOTION_DOT":"0.00001527","APOAPSIS":"548.714","CENTER_NAME":"EARTH"}];
